BEIDOU-2 IGSO-1 (C06)   
1 36828U 10036A   24172.46181998 -.00000037  00000+0  00000+0 0  9998
2 36828  54.2542 169.5333 0042012 207.1497 166.3874  1.00281816 50928
BEIDOU-2 G4 (C04)       
1 37210U 10057A   24172.56827885 -.00000092  00000+0  00000+0 0  9991
2 37210   1.8527  68.8658 0003159 157.7924  47.2507  1.00271049 50006
BEIDOU-2 IGSO-2 (C07)   
1 37256U 10068A   24172.25286295 -.00000196  00000+0  00000+0 0  9998
2 37256  48.8736 280.7871 0035897 210.2351 333.5663  1.00249265 49506
BEIDOU-2 IGSO-3 (C08)   
1 37384U 11013A   24172.09146770 -.00000184  00000+0  00000+0 0  9993
2 37384  61.3540  47.0831 0026816 174.8109 186.3232  1.00258097 48371
BEIDOU-2 IGSO-4 (C09)   
1 37763U 11038A   24172.45330941  .00000084  00000+0  00000+0 0  9994
2 37763  54.5597 172.1445 0125858 229.0418 125.4238  1.00258790 47358
BEIDOU-2 IGSO-5 (C10)   
1 37948U 11073A   24171.77849564 -.00000171  00000+0  00000+0 0  9996
2 37948  49.0070 280.4795 0100696 220.2453 141.5998  1.00293355 45844
BEIDOU-2 G5 (C05)       
1 38091U 12008A   24172.53026291  .00000077  00000+0  00000+0 0  9998
2 38091   2.0834  70.9113 0005292 273.5929 174.2498  1.00271892 45088
BEIDOU-2 M3 (C11)       
1 38250U 12018A   24168.93278325 -.00000083  00000+0  00000+0 0  9990
2 38250  56.3392 329.3501 0020895 262.3912  97.3680  1.86231389 82341
BEIDOU-2 M4 (C12)       
1 38251U 12018B   24171.54774464 -.00000077  00000+0  00000+0 0  9990
2 38251  56.2444 328.5347 0011833 263.5490  96.3085  1.86232042 82743
BEIDOU-2 M6 (C14)       
1 38775U 12050B   24172.33116859 -.00000037  00000+0  00000+0 0  9999
2 38775  55.9150  87.0580 0013846 340.3213  19.6252  1.86231164 79770
BEIDOU-2 G6 (C02)       
1 38953U 12059A   24172.60144186 -.00000157  00000+0  00000+0 0  9993
2 38953   2.5679  80.4905 0009826 318.9016 170.5001  1.00272046 42628
BEIDOU-3S IGSO-1S (C31) 
1 40549U 15019A   24171.88651433 -.00000159  00000+0  00000+0 0  9995
2 40549  50.5699 304.1609 0038487 192.4705 181.1176  1.00250337 33786
BEIDOU-3S M2S (C58)     
1 40748U 15037A   24170.13711222 -.00000082  00000+0  00000+0 0  9991
2 40748  55.4773 327.0020 0008497 247.2921 112.6115  1.86233298 60549
BEIDOU-3S M1S (C57)     
1 40749U 15037B   24172.55529805 -.00000074  00000+0  00000+0 0  9995
2 40749  55.4784 326.9072 0003185 359.5407   0.4492  1.86232982 60598
BEIDOU-3S IGSO-2S (C56) 
1 40938U 15053A   24169.67665878 -.00000143  00000+0  00000+0 0  9990
2 40938  50.3566 267.4015 0052558 190.2817 147.7601  1.00262579 32035
BEIDOU-2 IGSO-6 (C13)   
1 41434U 16021A   24171.63661762 -.00000163  00000+0  00000+0 0  9997
2 41434  59.1794  45.3229 0048013 222.5290 325.4437  1.00270672 30181
BEIDOU-2 G7 (C03)       
1 41586U 16037A   24172.54063931 -.00000334  00000+0  00000+0 0  9997
2 41586   1.9145  69.7090 0009336   5.2495 139.4506  1.00273350 29508
BEIDOU-3 M1 (C19)       
1 43001U 17069A   24171.02328259 -.00000043  00000+0  00000+0 0  9993
2 43001  56.0644  87.1990 0010691 308.9945  50.9064  1.86231578 45042
BEIDOU-3 M2 (C20)       
1 43002U 17069B   24169.34966748 -.00000046  00000+0  00000+0 0  9990
2 43002  56.0625  87.2902 0009052 332.2012  27.7451  1.86231111 45001
BEIDOU-3 M7 (C27)       
1 43107U 18003A   24171.24657689 -.00000080  00000+0  00000+0 0  9996
2 43107  54.9346 327.5543 0004743  77.8980 282.1477  1.86232559 43799
BEIDOU-3 M8 (C28)       
1 43108U 18003B   24172.26093002 -.00000076  00000+0  00000+0 0  9998
2 43108  54.9269 327.5050 0002689 250.9055 109.0565  1.86230980 43826
BEIDOU-3 M4 (C22)       
1 43207U 18018A   24172.16527531 -.00000038  00000+0  00000+0 0  9990
2 43207  56.0240  87.2500 0006781 358.6046   1.3924  1.86231430 43207
BEIDOU-3 M3 (C21)       
1 43208U 18018B   24170.08404462 -.00000045  00000+0  00000+0 0  9995
2 43208  56.0220  87.3236 0008750 321.7657  38.1670  1.86231427 43167
BEIDOU-3 M9 (C29)       
1 43245U 18029A   24172.45305622 -.00000075  00000+0  00000+0 0  9992
2 43245  54.8174 325.2208 0000610 139.6066 220.3875  1.86232747 42361
BEIDOU-3 M10 (C30)      
1 43246U 18029B   24171.30883829 -.00000079  00000+0  00000+0 0  9990
2 43246  54.8152 325.2877 0003600  22.8396 337.1672  1.86233027 42321
BEIDOU-2 IGSO-7 (C16)   
1 43539U 18057A   24171.90089497 -.00000032  00000+0  00000+0 0  9990
2 43539  55.1434 169.3444 0075457 233.6380 300.3293  1.00252386 21844
BEIDOU-3 M5 (C23)       
1 43581U 18062A   24172.06891165  .00000110  00000+0  00000+0 0  9990
2 43581  54.1321 207.0361 0005327 274.9279  85.1010  1.86228850 40093
BEIDOU-3 M6 (C24)       
1 43582U 18062B   24172.47172277  .00000110  00000+0  00000+0 0  9992
2 43582  54.1318 207.0117 0004201 357.1425   2.9447  1.86229693 40105
BEIDOU-3 M12 (C26)      
1 43602U 18067A   24171.86808143  .00000112  00000+0  00000+0 0  9992
2 43602  54.2226 205.7137 0006655  17.7951 342.3165  1.86231740 39575
BEIDOU-3 M11 (C25)      
1 43603U 18067B   24172.53897562  .00000111  00000+0  00000+0 0  9990
2 43603  54.2197 205.6560 0003670 359.6310   0.4566  1.86231631 39614
BEIDOU-3 M13 (C32)      
1 43622U 18072A   24171.42603834 -.00000042  00000+0  00000+0 0  9995
2 43622  55.9946  86.8052 0007247 309.9083  50.0255  1.86231607 39102
BEIDOU-3 M14 (C33)      
1 43623U 18072B   24172.36540597 -.00000037  00000+0  00000+0 0  9990
2 43623  55.9971  86.7670 0005567 338.4690  21.5081  1.86231553 39111
BEIDOU-3 M16 (C35)      
1 43647U 18078A   24171.99113067 -.00000077  00000+0  00000+0 0  9992
2 43647  54.7136 325.3348 0007002  24.5307 335.4925  1.86232271 38611
BEIDOU-3 M15 (C34)      
1 43648U 18078B   24172.12030574 -.00000076  00000+0  00000+0 0  9999
2 43648  54.7093 325.3332 0004135  40.8519 319.1690  1.86232344 38638
BEIDOU-3 G1 (C59)       
1 43683U 18085A   24172.54646983 -.00000258  00000+0  00000+0 0  9991
2 43683   2.1994 109.4631 0004144 350.9159 145.6407  1.00273081 20775
BEIDOU-3 M17 (C36)      
1 43706U 18093A   24172.27070974  .00000110  00000+0  00000+0 0  9993
2 43706  54.2150 206.9677 0010265 279.8596  80.1142  1.86228488 38000
BEIDOU-3 M18 (C37)      
1 43707U 18093B   24172.13602863  .00000111  00000+0  00000+0 0  9998
2 43707  54.2159 206.9641 0008062 304.5328  55.4809  1.86229979 37990
BEIDOU-3 IGSO-1 (C38)   
1 44204U 19023A   24169.20542142 -.00000226  00000+0  00000+0 0  9990
2 44204  57.6415  45.2233 0018941 209.3642 200.6006  1.00249867 19025
BEIDOU-2 G8 (C01)       
1 44231U 19027A   24172.55299354 -.00000228  00000+0  00000+0 0  9992
2 44231   1.9565  73.9383 0002312 151.3516  27.5205  1.00275067 18799
BEIDOU-3 IGSO-2 (C39)   
1 44337U 19035A   24172.63298069 -.00000053  00000+0  00000+0 0  9995
2 44337  55.1804 165.2380 0035506 205.1148 243.1436  1.00296508 18385
BEIDOU-3 M24 (C46)      
1 44542U 19061A   24172.20559979  .00000111  00000+0  00000+0 0  9999
2 44542  54.4428 207.2567 0007630 342.1761  17.8874  1.86231359 32252
BEIDOU-3 M23 (C45)      
1 44543U 19061B   24172.34010747  .00000111  00000+0  00000+0 0  9990
2 44543  54.4411 207.2213 0005338 320.9400  41.5818  1.86231789 32260
BEIDOU-3 IGSO-3 (C40)   
1 44709U 19073A   24170.73754322 -.00000210  00000+0  00000+0 0  9993
2 44709  56.0471 288.7108 0039155 181.7945 178.1649  1.00249057 17159
BEIDOU-3 M22 (C44)      
1 44793U 19078A   24171.51441178 -.00000079  00000+0  00000+0 0  9993
2 44793  54.5619 325.2830 0006036  33.6170 326.4118  1.86232251 31095
BEIDOU-3 M21 (C43)      
1 44794U 19078B   24168.95945934 -.00000086  00000+0  00000+0 0  9995
2 44794  54.5375 325.3476 0003936  32.5252 327.4930  1.86232783 31056
BEIDOU-3 M19 (C41)      
1 44864U 19090A   24171.60554979 -.00000041  00000+0  00000+0 0  9999
2 44864  55.9288  86.9708 0017900 285.1386 241.7944  1.86231834 30687
BEIDOU-3 M20 (C42)      
1 44865U 19090B   24172.59163476 -.00000035  00000+0  00000+0 0  9990
2 44865  55.9312  86.9714 0015905 298.5720 259.2156  1.86231722 30681
BEIDOU-3 G2 (C60)       
1 45344U 20017A   24172.53452701 -.00000122  00000+0  00000+0 0  9997
2 45344   2.3194  29.7690 0001694 103.3731  48.5513  1.00271102 15974
BEIDOU-3 G3 (C61)       
1 45807U 20040A   24172.58312559 -.00000333  00000+0  00000+0 0  9992
2 45807   0.7826  42.7927 0004868 284.7013 262.2823  1.00269693 14782
BEIDOU-3 G4             
1 56564U 23066A   24172.56827902 -.00000088  00000+0  00000+0 0  9993
2 56564   2.1149 288.2090 0005931 200.0460 145.5839  1.00270492  4109
BEIDOU-3 M25            
1 58654U 23207A   24172.26389992 -.00000038  00000+0  00000+0 0  9996
2 58654  55.1124  86.9621 0003080 310.1906  49.7815  1.86232351  3302
BEIDOU-3 M26            
1 58655U 23207B   24171.52591482 -.00000042  00000+0  00000+0 0  9999
2 58655  55.1139  86.9726 0003435 284.4962  75.4625  1.86232003  3279
